NASA_API_KEY=b5XzJdVDyPSjA342CgG7fhfWPgAYDW6DFZCw1aeN
STAC_SERVER_URL=https://landsatlook.usgs.gov/stac-server
TLE_LINE1=1 43013U 17073A   20334.91667824  .00000023  00000-0  00000+0 0  9994
TLE_LINE2=2 43013  97.7421  34.8470 0001432  91.5763 268.5523 14.57178936188308
EMAIL_USER=landsat.spaceapps2024@gmail.com
EMAIL_PASS=NasaSpaceApps
USGS_API_TOKEN=gZjYOXFqpWTzNTwZVyXVSsEN2w2YnaIpnQ_FtBIpgFX3Hytwe!1rzZo3S!VPWldw
STADIA_API_KEY=196b415d-1045-40ef-af78-833d1eff4161